CCSDS_OMM_VERS = 2.0
CREATION_DATE  = 
ORIGINATOR     = 

OBJECT_NAME    = STARLINK-36624
OBJECT_ID      = 2026-020V
CENTER_NAME    = EARTH
REF_FRAME      = TEME
TIME_SYSTEM    = UTC
MEAN_ELEMENT_THEORY = SGP/SGP4

EPOCH          = 2026-02-12T14:00:01.999872
MEAN_MOTION    = 15.82001575
ECCENTRICITY   = .00019922
INCLINATION    = 42.9989
RA_OF_ASC_NODE = 294.5573
ARG_OF_PERICENTER = 282.8693
MEAN_ANOMALY   = 157.3471

EPHEMERIS_TYPE = 0
CLASSIFICATION_TYPE = U
NORAD_CAT_ID   = 67636
ELEMENT_SET_NO = 999
REV_AT_EPOCH   = 335
BSTAR          = -.99258859E-4
MEAN_MOTION_DOT = -.2137E-3
MEAN_MOTION_DDOT = 0

CCSDS_OMM_VERS = 2.0
CREATION_DATE  = 
ORIGINATOR     = 

OBJECT_NAME    = STARLINK-36610
OBJECT_ID      = 2026-020W
CENTER_NAME    = EARTH
REF_FRAME      = TEME
TIME_SYSTEM    = UTC
MEAN_ELEMENT_THEORY = SGP/SGP4

EPOCH          = 2026-02-12T14:00:01.999872
MEAN_MOTION    = 15.76309858
ECCENTRICITY   = .00015836
INCLINATION    = 42.9990
RA_OF_ASC_NODE = 294.6197
ARG_OF_PERICENTER = 274.9468
MEAN_ANOMALY   = 140.3157

EPHEMERIS_TYPE = 0
CLASSIFICATION_TYPE = U
NORAD_CAT_ID   = 67637
ELEMENT_SET_NO = 999
REV_AT_EPOCH   = 335
BSTAR          = .54688892E-3
MEAN_MOTION_DOT = .89287E-3
MEAN_MOTION_DDOT = 0

CCSDS_OMM_VERS = 2.0
CREATION_DATE  = 
ORIGINATOR     = 

OBJECT_NAME    = STARLINK-36599
OBJECT_ID      = 2026-020X
CENTER_NAME    = EARTH
REF_FRAME      = TEME
TIME_SYSTEM    = UTC
MEAN_ELEMENT_THEORY = SGP/SGP4

EPOCH          = 2026-02-12T14:00:01.999872
MEAN_MOTION    = 15.81980121
ECCENTRICITY   = .00023256
INCLINATION    = 42.9989
RA_OF_ASC_NODE = 294.5242
ARG_OF_PERICENTER = 264.0283
MEAN_ANOMALY   = 189.2130

EPHEMERIS_TYPE = 0
CLASSIFICATION_TYPE = U
NORAD_CAT_ID   = 67638
ELEMENT_SET_NO = 999
REV_AT_EPOCH   = 335
BSTAR          = .1612353E-3
MEAN_MOTION_DOT = .33494E-3
MEAN_MOTION_DDOT = 0

CCSDS_OMM_VERS = 2.0
CREATION_DATE  = 
ORIGINATOR     = 

OBJECT_NAME    = STARLINK-36595
OBJECT_ID      = 2026-020Y
CENTER_NAME    = EARTH
REF_FRAME      = TEME
TIME_SYSTEM    = UTC
MEAN_ELEMENT_THEORY = SGP/SGP4

EPOCH          = 2026-02-12T14:00:01.999872
MEAN_MOTION    = 15.81990581
ECCENTRICITY   = .00021811
INCLINATION    = 42.9989
RA_OF_ASC_NODE = 294.5126
ARG_OF_PERICENTER = 262.0034
MEAN_ANOMALY   = 195.7484

EPHEMERIS_TYPE = 0
CLASSIFICATION_TYPE = U
NORAD_CAT_ID   = 67639
ELEMENT_SET_NO = 999
REV_AT_EPOCH   = 335
BSTAR          = -.78706403E-4
MEAN_MOTION_DOT = -.17056E-3
MEAN_MOTION_DDOT = 0

CCSDS_OMM_VERS = 2.0
CREATION_DATE  = 
ORIGINATOR     = 

OBJECT_NAME    = STARLINK-36570
OBJECT_ID      = 2026-020Z
CENTER_NAME    = EARTH
REF_FRAME      = TEME
TIME_SYSTEM    = UTC
MEAN_ELEMENT_THEORY = SGP/SGP4

EPOCH          = 2026-02-12T14:00:01.999872
MEAN_MOTION    = 15.77136194
ECCENTRICITY   = .00019839
INCLINATION    = 42.9991
RA_OF_ASC_NODE = 294.5258
ARG_OF_PERICENTER = 263.2519
MEAN_ANOMALY   = 188.8832

EPHEMERIS_TYPE = 0
CLASSIFICATION_TYPE = U
NORAD_CAT_ID   = 67640
ELEMENT_SET_NO = 999
REV_AT_EPOCH   = 335
BSTAR          = -.69186151E-2
MEAN_MOTION_DOT = -.1050916E-1
MEAN_MOTION_DDOT = 0

CCSDS_OMM_VERS = 2.0
CREATION_DATE  = 
ORIGINATOR     = 

OBJECT_NAME    = STARLINK-36514
OBJECT_ID      = 2026-020AA
CENTER_NAME    = EARTH
REF_FRAME      = TEME
TIME_SYSTEM    = UTC
MEAN_ELEMENT_THEORY = SGP/SGP4

EPOCH          = 2026-02-12T14:00:01.999872
MEAN_MOTION    = 15.82000161
ECCENTRICITY   = .00016573
INCLINATION    = 42.9985
RA_OF_ASC_NODE = 294.4792
ARG_OF_PERICENTER = 270.8491
MEAN_ANOMALY   = 199.9702

EPHEMERIS_TYPE = 0
CLASSIFICATION_TYPE = U
NORAD_CAT_ID   = 67641
ELEMENT_SET_NO = 999
REV_AT_EPOCH   = 335
BSTAR          = -.46542965E-4
MEAN_MOTION_DOT = -.10314E-3
MEAN_MOTION_DDOT = 0

CCSDS_OMM_VERS = 2.0
CREATION_DATE  = 
ORIGINATOR     = 

OBJECT_NAME    = STARLINK-36556
OBJECT_ID      = 2026-020AB
CENTER_NAME    = EARTH
REF_FRAME      = TEME
TIME_SYSTEM    = UTC
MEAN_ELEMENT_THEORY = SGP/SGP4

EPOCH          = 2026-02-12T14:00:01.999872
MEAN_MOTION    = 15.81967330
ECCENTRICITY   = .00020384
INCLINATION    = 42.9986
RA_OF_ASC_NODE = 294.4702
ARG_OF_PERICENTER = 248.0275
MEAN_ANOMALY   = 226.4088

EPHEMERIS_TYPE = 0
CLASSIFICATION_TYPE = U
NORAD_CAT_ID   = 67642
ELEMENT_SET_NO = 999
REV_AT_EPOCH   = 335
BSTAR          = .24781075E-3
MEAN_MOTION_DOT = .51843E-3
MEAN_MOTION_DDOT = 0

CCSDS_OMM_VERS = 2.0
CREATION_DATE  = 
ORIGINATOR     = 

OBJECT_NAME    = STARLINK-36533
OBJECT_ID      = 2026-020AC
CENTER_NAME    = EARTH
REF_FRAME      = TEME
TIME_SYSTEM    = UTC
MEAN_ELEMENT_THEORY = SGP/SGP4

EPOCH          = 2026-02-12T14:00:01.999872
MEAN_MOTION    = 15.76346518
ECCENTRICITY   = .00019033
INCLINATION    = 42.9990
RA_OF_ASC_NODE = 294.5561
ARG_OF_PERICENTER = 260.3222
MEAN_ANOMALY   = 179.8105

EPHEMERIS_TYPE = 0
CLASSIFICATION_TYPE = U
NORAD_CAT_ID   = 67643
ELEMENT_SET_NO = 999
REV_AT_EPOCH   = 335
BSTAR          = .1311769E-3
MEAN_MOTION_DOT = .20908E-3
MEAN_MOTION_DDOT = 0

CCSDS_OMM_VERS = 2.0
CREATION_DATE  = 
ORIGINATOR     = 

OBJECT_NAME    = STARLINK-36623
OBJECT_ID      = 2026-020AD
CENTER_NAME    = EARTH
REF_FRAME      = TEME
TIME_SYSTEM    = UTC
MEAN_ELEMENT_THEORY = SGP/SGP4

EPOCH          = 2026-02-12T14:00:01.999872
MEAN_MOTION    = 15.77694650
ECCENTRICITY   = .00017366
INCLINATION    = 42.9991
RA_OF_ASC_NODE = 294.4639
ARG_OF_PERICENTER = 265.7181
MEAN_ANOMALY   = 210.8664

EPHEMERIS_TYPE = 0
CLASSIFICATION_TYPE = U
NORAD_CAT_ID   = 67644
ELEMENT_SET_NO = 999
REV_AT_EPOCH   = 335
BSTAR          = -.10605111E-1
MEAN_MOTION_DOT = -.1598578E-1
MEAN_MOTION_DDOT = 0

CCSDS_OMM_VERS = 2.0
CREATION_DATE  = 
ORIGINATOR     = 

OBJECT_NAME    = STARLINK-36619
OBJECT_ID      = 2026-020AE
CENTER_NAME    = EARTH
REF_FRAME      = TEME
TIME_SYSTEM    = UTC
MEAN_ELEMENT_THEORY = SGP/SGP4

EPOCH          = 2026-02-12T14:00:01.999872
MEAN_MOTION    = 15.81293301
ECCENTRICITY   = .0001749
INCLINATION    = 42.9987
RA_OF_ASC_NODE = 294.4571
ARG_OF_PERICENTER = 253.8201
MEAN_ANOMALY   = 225.6204

EPHEMERIS_TYPE = 0
CLASSIFICATION_TYPE = U
NORAD_CAT_ID   = 67645
ELEMENT_SET_NO = 999
REV_AT_EPOCH   = 335
BSTAR          = -.10636763E-1
MEAN_MOTION_DOT = -.1891733E-1
MEAN_MOTION_DDOT = 0

CCSDS_OMM_VERS = 2.0
CREATION_DATE  = 
ORIGINATOR     = 

OBJECT_NAME    = ALSAT-3B
OBJECT_ID      = 2026-021A
CENTER_NAME    = EARTH
REF_FRAME      = TEME
TIME_SYSTEM    = UTC
MEAN_ELEMENT_THEORY = SGP/SGP4

EPOCH          = 2026-02-12T13:25:47.308512
MEAN_MOTION    = 15.23563719
ECCENTRICITY   = .00118278
INCLINATION    = 97.4720
RA_OF_ASC_NODE = 118.0042
ARG_OF_PERICENTER = 218.5650
MEAN_ANOMALY   = 141.4743

EPHEMERIS_TYPE = 0
CLASSIFICATION_TYPE = U
NORAD_CAT_ID   = 67646
ELEMENT_SET_NO = 999
REV_AT_EPOCH   = 189
BSTAR          = .31945677E-3
MEAN_MOTION_DOT = .7582E-4
MEAN_MOTION_DDOT = 0

CCSDS_OMM_VERS = 2.0
CREATION_DATE  = 
ORIGINATOR     = 

OBJECT_NAME    = CZ-2C R/B
OBJECT_ID      = 2026-021B
CENTER_NAME    = EARTH
REF_FRAME      = TEME
TIME_SYSTEM    = UTC
MEAN_ELEMENT_THEORY = SGP/SGP4

EPOCH          = 2026-02-12T13:29:44.056608
MEAN_MOTION    = 15.23397099
ECCENTRICITY   = .01537508
INCLINATION    = 97.6561
RA_OF_ASC_NODE = 118.5249
ARG_OF_PERICENTER = 98.5187
MEAN_ANOMALY   = 263.3507

EPHEMERIS_TYPE = 0
CLASSIFICATION_TYPE = U
NORAD_CAT_ID   = 67647
ELEMENT_SET_NO = 999
REV_AT_EPOCH   = 187
BSTAR          = .41910459E-3
MEAN_MOTION_DOT = .13855E-3
MEAN_MOTION_DDOT = 0

