STARLINK-36624          
1 67636U 26020V   26043.58335648 -.00021370  00000+0 -99259-4 0  9997
2 67636  42.9989 294.5573 0001992 282.8693 157.3471 15.82001575  3358
STARLINK-36610          
1 67637U 26020W   26043.58335648  .00089287  00000+0  54689-3 0  9994
2 67637  42.9990 294.6197 0001583 274.9468 140.3157 15.76309858  3353
STARLINK-36599          
1 67638U 26020X   26043.58335648  .00033494  00000+0  16124-3 0  9996
2 67638  42.9989 294.5242 0002325 264.0283 189.2130 15.81980121  3359
STARLINK-36595          
1 67639U 26020Y   26043.58335648 -.00017056  00000+0 -78706-4 0  9990
2 67639  42.9989 294.5126 0002181 262.0034 195.7484 15.81990581  3358
STARLINK-36570          
1 67640U 26020Z   26043.58335648 -.01050916  00000+0 -69186-2 0  9995
2 67640  42.9991 294.5258 0001983 263.2519 188.8832 15.77136194  3356
STARLINK-36514          
1 67641U 26020AA  26043.58335648 -.00010314  00000+0 -46543-4 0  9997
2 67641  42.9985 294.4792 0001657 270.8491 199.9702 15.82000161  3352
STARLINK-36556          
1 67642U 26020AB  26043.58335648  .00051843  00000+0  24781-3 0  9997
2 67642  42.9986 294.4702 0002038 248.0275 226.4088 15.81967330  3358
STARLINK-36533          
1 67643U 26020AC  26043.58335648  .00020908  00000+0  13118-3 0  9998
2 67643  42.9990 294.5561 0001903 260.3222 179.8105 15.76346518  3351
STARLINK-36623          
1 67644U 26020AD  26043.58335648 -.01598578  00000+0 -10605-1 0  9991
2 67644  42.9991 294.4639 0001736 265.7181 210.8664 15.77694650  3355
STARLINK-36619          
1 67645U 26020AE  26043.58335648 -.01891733  00000+0 -10637-1 0  9996
2 67645  42.9987 294.4571 0001749 253.8201 225.6204 15.81293301  3358
ALSAT-3B                
1 67646U 26021A   26043.55957533  .00007582  00000+0  31946-3 0  9994
2 67646  97.4720 118.0042 0011827 218.5650 141.4743 15.23563719  1896
CZ-2C R/B               
1 67647U 26021B   26043.56231547  .00013855  00000+0  41910-3 0  9998
2 67647  97.6561 118.5249 0153750  98.5187 263.3507 15.23397099  1875
